ONEWEB-0389             
1 50469U 21132A   24131.78789950  .00000027  00000+0  36732-4 0  9990
2 50469  87.9177 158.6011 0002090  79.6596 280.4771 13.17648118117020
ONEWEB-0390             
1 50470U 21132B   24131.78948035  .00000041  00000+0  71655-4 0  9992
2 50470  87.9178 158.6087 0002409  88.2583 271.8824 13.17648759117026
ONEWEB-0391             
1 50471U 21132C   24132.55042340  .00000108  00000+0  24568-3 0  9997
2 50471  87.9185 158.4379 0001926  80.3342 279.8007 13.17649051118417
ONEWEB-0392             
1 50472U 21132D   24131.82112874  .00000055  00000+0  10890-3 0  9991
2 50472  87.9169 158.5883 0002071  83.2176 276.9191 13.17648973117064
ONEWEB-0393             
1 50473U 21132E   24131.79437173 -.00000053  00000+0 -16907-3 0  9995
2 50473  87.9181 158.5658 0002087  83.7675 276.3694 13.17647771117051
ONEWEB-0394             
1 50474U 21132F   24132.06230453  .00001175  00000+0  29480-2 0  9992
2 50474  87.9116 128.1662 0001895  85.0184 275.1164 13.18694004121768
ONEWEB-0395             
1 50475U 21132G   24132.53738640  .00000603  00000+0  16656-2 0  9992
2 50475  87.8982 173.6089 0002104  86.8087 273.3282 13.11450742116501
ONEWEB-0396             
1 50476U 21132H   24132.05599186  .00000108  00000+0  24007-3 0  9990
2 50476  87.9119 128.1633 0001871  84.7954 275.3392 13.18686236121804
ONEWEB-0397             
1 50477U 21132J   24132.52547292  .00000059  00000+0  11782-3 0  9995
2 50477  87.9119 128.0712 0001883  83.3770 276.7576 13.18686838121847
ONEWEB-0398             
1 50478U 21132K   24131.81830282  .00000090  00000+0  21821-3 0  9991
2 50478  87.8977 173.7320 0002437  89.7927 270.3480 13.11427480115038
ONEWEB-0399             
1 50479U 21132L   24131.65123482 -.00005777  00000+0 -16362-1 0  9992
2 50479  87.8981 173.7807 0001749  98.1388 261.9939 13.11353210115005
ONEWEB-0400             
1 50480U 21132M   24131.74616518  .00000007  00000+0 -15925-4 0  9998
2 50480  87.9116 128.2309 0002245  87.5374 272.6015 13.18685646120467
ONEWEB-0401             
1 50481U 21132N   24132.47172441  .00000074  00000+0  15541-3 0  9998
2 50481  87.9114 128.0842 0001725  94.9856 265.1473 13.18686259121844
ONEWEB-0402             
1 50482U 21132P   24131.90581105 -.00000067  00000+0 -20369-3 0  9995
2 50482  87.9114 128.1940 0001946 106.2124 253.9222 13.18684719120514
ONEWEB-0403             
1 50483U 21132Q   24132.00539833  .00000131  00000+0  29923-3 0  9994
2 50483  87.9118 128.1811 0001809  85.5116 274.6223 13.18685434121768
ONEWEB-0404             
1 50484U 21132R   24131.63329488 -.00000533  00000+0 -15411-2 0  9990
2 50484  87.8991 173.7538 0001891  83.7138 276.4205 13.11407048115099
ONEWEB-0405             
1 50485U 21132S   24131.94533277 -.00000004  00000+0 -43639-4 0  9996
2 50485  87.9118 128.1825 0001597  96.7583 263.3731 13.18684855120877
ONEWEB-0406             
1 50486U 21132T   24132.46541131  .00000167  00000+0  39061-3 0  9994
2 50486  87.9121 128.0897 0002115  77.6059 282.5310 13.18685986121865
ONEWEB-0407             
1 50487U 21132U   24131.92794769 -.00000003  00000+0 -41221-4 0  9995
2 50487  87.9115 128.2002 0001843  89.4581 270.6763 13.18684386120443
ONEWEB-0409             
1 50488U 21132V   24132.54721086 -.00000442  00000+0 -12817-2 0  9991
2 50488  87.8984 173.5730 0002217  77.7926 282.3450 13.11413828116382
ONEWEB-0412             
1 50489U 21132W   24131.91687943 -.00000001  00000+0 -34842-4 0  9990
2 50489  87.9121 128.2001 0001533  97.2741 262.8565 13.18686051120536
ONEWEB-0413             
1 50490U 21132X   24132.52863760  .00000081  00000+0  17389-3 0  9995
2 50490  87.9120 128.0915 0001799 100.5496 259.5839 13.18687575121842
ONEWEB-0414             
1 50491U 21132Y   24131.90739526 -.00000031  00000+0 -11040-3 0  9994
2 50491  87.9116 128.1951 0001631  87.5415 272.5903 13.18684646120504
ONEWEB-0417             
1 50492U 21132Z   24131.68767673  .00000006  00000+0 -18225-4 0  9998
2 50492  87.9122 128.2390 0002064  80.0715 280.0650 13.18686029120456
ONEWEB-0418             
1 50493U 21132AA  24131.92465012  .00000007  00000+0 -15422-4 0  9995
2 50493  87.9120 128.1965 0002062  72.8335 287.3023 13.18684822120540
ONEWEB-0419             
1 50494U 21132AB  24132.47330664  .00000140  00000+0  32133-3 0  9995
2 50494  87.9116 128.1057 0002303  81.6537 278.4856 13.18687082121826
ONEWEB-0420             
1 50495U 21132AC  24131.90897353 -.00000045  00000+0 -14667-3 0  9994
2 50495  87.9113 128.2268 0002015  98.6488 261.4873 13.18681722120456
ONEWEB-0421             
1 50496U 21132AD  24131.90265388 -.00000035  00000+0 -12075-3 0  9992
2 50496  87.9123 128.1909 0001570  91.3179 268.8133 13.18684866120497
ONEWEB-0424             
1 50497U 21132AE  24132.46856162 -.00000738  00000+0 -19054-2 0  9994
2 50497  87.9121 128.0871 0002688  83.2842 276.8596 13.18689000121871
ONEWEB-0426             
1 50498U 21132AF  24131.74774189 -.00000026  00000+0 -98816-4 0  9998
2 50498  87.9115 128.2482 0001654  70.2666 289.8644 13.18685515120444
ONEWEB-0427             
1 50499U 21132AG  24132.46699163  .00000309  00000+0  75200-3 0  9990
2 50499  87.9115 128.0820 0001990  80.7470 279.3887 13.18686804121863
ONEWEB-0429             
1 50500U 21132AH  24131.92322275 -.00000027  00000+0 -10097-3 0  9992
2 50500  87.9122 128.1939 0002080  95.1128 265.0241 13.18690392120465
ONEWEB-0430             
1 50501U 21132AJ  24132.51914429  .00000087  00000+0  18803-3 0  9994
2 50501  87.9120 128.0813 0002496  91.9555 268.1863 13.18685911121874
ONEWEB-0432             
1 50502U 21132AK  24132.47489500  .00000226  00000+0  54143-3 0  9999
2 50502  87.9117 128.0834 0002489  83.0831 277.0584 13.18686810121839
ONEWEB-0440             
1 50503U 21132AL  24132.00698981  .00000112  00000+0  25080-3 0  9996
2 50503  87.9122 128.1641 0001574 101.7552 258.3757 13.18685998121756
ONEWEB-0450             
1 50504U 21132AM  24131.92491665  .00000007  00000+0 -14807-4 0  9997
2 50504  87.9121 128.2088 0002216  97.3744 262.7640 13.18684839120481
ONEWEB-0410             
1 51622U 22012A   24131.80688662  .00000044  00000+0  80435-4 0  9999
2 51622  87.9173 158.5809 0001773  44.2317 315.8956 13.17648719112646
ONEWEB-0411             
1 51623U 22012B   24131.62014869  .00000443  00000+0  12324-2 0  9995
2 51623  87.8972 188.8247 0002798  97.8367 262.3078 13.10369908108764
ONEWEB-0415             
1 51624U 22012C   24132.15133372  .00000648  00000+0  18190-2 0  9990
2 51624  87.8968 188.7436 0002439  94.1769 265.9637 13.10373104110112
ONEWEB-0416             
1 51625U 22012D   24132.39201910  .00000347  00000+0  95922-3 0  9996
2 51625  87.8971 188.6888 0002040  97.7470 262.3889 13.10371588110195
ONEWEB-0422             
1 51626U 22012E   24132.49979728  .00000137  00000+0  31878-3 0  9994
2 51626  87.9175 158.4425 0002181 114.5628 245.5731 13.17650353114127
ONEWEB-0423             
1 51627U 22012F   24132.49347757  .00000115  00000+0  26271-3 0  9993
2 51627  87.9177 158.4441 0001950  94.3538 265.7817 13.17649531114020
ONEWEB-0425             
1 51628U 22012G   24132.40196367 -.00000165  00000+0 -50937-3 0  9997
2 51628  87.8970 188.6716 0001677  94.6812 265.4507 13.10371077110192
ONEWEB-0428             
1 51629U 22012H   24132.15298595  .00000570  00000+0  15975-2 0  9996
2 51629  87.8972 188.7355 0002338 103.5884 256.5503 13.10370252110112
ONEWEB-0431             
1 51630U 22012J   24132.19932200 -.00000197  00000+0 -60043-3 0  9994
2 51630  87.8969 188.7259 0002807 102.4545 257.6897 13.10375822110189
ONEWEB-0434             
1 51631U 22012K   24131.71805960 -.00000641  00000+0 -18733-2 0  9996
2 51631  87.8972 188.8334 0002054 104.4219 255.7136 13.10369922108819
ONEWEB-0435             
1 51632U 22012L   24132.18450190 -.00000595  00000+0 -17416-2 0  9995
2 51632  87.8974 188.7320 0002201 109.7456 250.3908 13.10372284110143
ONEWEB-0436             
1 51633U 22012M   24132.48555490  .00000108  00000+0  24603-3 0  9993
2 51633  87.9174 158.4520 0002082  99.8583 260.2783 13.17648794114009
ONEWEB-0438             
1 51634U 22012N   24131.70977183 -.00000272  00000+0 -81667-3 0  9992
2 51634  87.8970 188.8260 0001848  96.7283 263.4055 13.10369639108835
ONEWEB-0439             
1 51635U 22012P   24132.55302798 -.00000087  00000+0 -28476-3 0  9994
2 51635  87.8971 188.6439 0002164 100.9200 259.2171 13.10371491110207
ONEWEB-0442             
1 51636U 22012Q   24132.55280428  .00000055  00000+0  10908-3 0  9994
2 51636  87.9174 158.4719 0002102  70.2378 289.8980 13.17649257114001
ONEWEB-0443             
1 51637U 22012R   24131.81320934  .00000015  00000+0  47956-5 0  9991
2 51637  87.9179 158.6259 0001795 106.9707 253.1621 13.17648231112665
ONEWEB-0444             
1 51638U 22012S   24132.54306828  .00000412  00000+0  11435-2 0  9990
2 51638  87.8965 188.6696 0002048 105.1501 254.9853 13.10372590110222
ONEWEB-0445             
1 51639U 22012T   24132.18284872 -.00000599  00000+0 -17509-2 0  9991
2 51639  87.8961 188.7149 0002162  90.3989 269.7386 13.10372581110174
ONEWEB-0446             
1 51640U 22012U   24132.54142144  .00000193  00000+0  51650-3 0  9992
2 51640  87.8981 188.6661 0002834  94.2197 265.9254 13.10366208110223
ONEWEB-0448             
1 51641U 22012V   24132.54638868  .00000229  00000+0  62086-3 0  9991
2 51641  87.8970 188.6646 0001968 104.1438 255.9908 13.10371279110185
ONEWEB-0449             
1 51642U 22012W   24132.16957419 -.00000107  00000+0 -34380-3 0  9999
2 51642  87.8965 188.7363 0001818  93.6636 266.4699 13.10369226110153
ONEWEB-0451             
1 51643U 22012X   24131.87333199  .00000057  00000+0  11429-3 0  9991
2 51643  87.9173 158.5708 0001913  96.3215 263.8134 13.17648839112618
ONEWEB-0452             
1 51644U 22012Y   24132.47922956  .00000107  00000+0  24167-3 0  9993
2 51644  87.9178 158.4890 0001686  92.0046 268.1278 13.17649018114009
